[{"OBJECT_NAME":"NUSAT-35 (WILLIAMINA)","OBJECT_ID":"2023-001AR","EPOCH":"2026-03-09T22:28:40.425600","MEAN_MOTION":15.3245616,"ECCENTRICITY":0.00136635,"INCLINATION":97.1993,"RA_OF_ASC_NODE":124.278,"ARG_OF_PERICENTER":97.0313,"MEAN_ANOMALY":263.2484,"EPHEMERIS_TYPE":0,"CLASSIFICATION_TYPE":"U","NORAD_CAT_ID":55048,"ELEMENT_SET_NO":999,"REV_AT_EPOCH":17719,"BSTAR":0.00053479647,"MEAN_MOTION_DOT":0.0001675,"MEAN_MOTION_DDOT":0},{"OBJECT_NAME":"STARLINK-35557","OBJECT_ID":"2025-245D","EPOCH":"2026-03-09T21:07:55.885152","MEAN_MOTION":15.30205177,"ECCENTRICITY":9.795e-5,"INCLINATION":53.1571,"RA_OF_ASC_NODE":283.1634,"ARG_OF_PERICENTER":78.2594,"MEAN_ANOMALY":281.8517,"EPHEMERIS_TYPE":0,"CLASSIFICATION_TYPE":"U","NORAD_CAT_ID":66237,"ELEMENT_SET_NO":999,"REV_AT_EPOCH":2128,"BSTAR":0.00081218761,"MEAN_MOTION_DOT":0.00023776,"MEAN_MOTION_DDOT":0}]
